IRIDIUM 155             
1 43573U 18061E   20246.47382925  .00000067  00000-0  17035-4 0  9995
2 43573  86.3979 220.0019 0002798  82.1900 277.9614 14.34218967110391
IRIDIUM 154             
1 43574U 18061F   20246.45480215  .00000068  00000-0  17359-4 0  9995
2 43574  86.3983 220.0431 0002096  93.8611 266.2824 14.34217648110449
IRIDIUM 163             
1 43575U 18061G   20246.43576618  .00000068  00000-0  17064-4 0  9990
2 43575  86.3980 220.0306 0001769  76.0420 284.0973 14.34217698110410
IRIDIUM 156             
1 43576U 18061H   20246.48017746  .00000062  00000-0  15107-4 0  9998
2 43576  86.3980 220.0168 0002287  77.3387 282.8064 14.34217646110419
IRIDIUM 164             
1 43577U 18061J   20246.46113523  .00000070  00000-0  18023-4 0  9996
2 43577  86.3898 220.0387 0003747  75.7412 284.4200 14.34229463110458
IRIDIUM 159             
1 43578U 18061K   20246.42943029  .00000067  00000-0  16999-4 0  9991
2 43578  86.3980 220.0274 0002130  90.9880 269.1560 14.34217432110417
IRIDIUM 180             
1 43922U 19002A   20246.49868680  .00000076  00000-0  20038-4 0  9995
2 43922  86.4022 156.9365 0001289 107.6650 252.4687 14.34219318 86031
IRIDIUM 176             
1 43923U 19002B   20246.49924215  .00000146  00000-0  19286-4 0  9994
2 43923  86.6158 156.9653 0002248  87.0172 273.1302 14.72250911 88267
IRIDIUM 168             
1 43924U 19002C   20246.49235641  .00000075  00000-0  19847-4 0  9997
2 43924  86.4025 156.9566 0001994  90.3799 269.7625 14.34218689 86015
IRIDIUM 173             
1 43925U 19002D   20246.47966792  .00000079  00000-0  21039-4 0  9994
2 43925  86.4021 156.9367 0001992  86.6289 273.5135 14.34216768 86005
IRIDIUM 169             
1 43926U 19002E   20246.38283861  .00000064  00000-0  14368-4 0  9995
2 43926  86.4286 188.5172 0007348  94.3469 265.8569 14.38606322 86324
IRIDIUM 172             
1 43927U 19002F   20246.47332284  .00000083  00000-0  22415-4 0  9993
2 43927  86.4022 156.9408 0001921  88.8758 271.2657 14.34217617 86009
IRIDIUM 175             
1 43928U 19002G   20246.49305808  .00000150  00000-0  19927-4 0  9997
2 43928  86.6141 156.8446 0002542  66.2650 293.8834 14.72251009 88257
IRIDIUM 171             
1 43929U 19002H   20246.31476844  .00000075  00000-0  19727-4 0  9992
2 43929  86.4032 157.0783 0002035  90.4679 269.6750 14.34219413 85974
IRIDIUM 170             
1 43930U 19002J   20246.50545791  .00000145  00000-0  19094-4 0  9998
2 43930  86.6158 156.9697 0002101  81.5210 278.6245 14.72253788 88275
IRIDIUM 167             
1 43931U 19002K   20246.30840008  .00000068  00000-0  17317-4 0  9996
2 43931  86.4023 157.0133 0001479 104.7417 255.3943 14.34221014 85972
